[{"OBJECT_NAME":"RISING 2","OBJECT_ID":"2014-029D","EPOCH":"2026-03-09T22:49:58.395648","MEAN_MOTION":14.97431818,"ECCENTRICITY":0.00015683,"INCLINATION":97.6622,"RA_OF_ASC_NODE":139.362,"ARG_OF_PERICENTER":264.4485,"MEAN_ANOMALY":95.6558,"EPHEMERIS_TYPE":0,"CLASSIFICATION_TYPE":"U","NORAD_CAT_ID":39769,"ELEMENT_SET_NO":999,"REV_AT_EPOCH":63869,"BSTAR":0.00068568934,"MEAN_MOTION_DOT":7.926e-5,"MEAN_MOTION_DDOT":0},{"OBJECT_NAME":"STARLINK-35957","OBJECT_ID":"2025-280C","EPOCH":"2026-03-09T22:09:10.953216","MEAN_MOTION":14.98331638,"ECCENTRICITY":0.00018765,"INCLINATION":70.0036,"RA_OF_ASC_NODE":333.7557,"ARG_OF_PERICENTER":245.3826,"MEAN_ANOMALY":114.7138,"EPHEMERIS_TYPE":0,"CLASSIFICATION_TYPE":"U","NORAD_CAT_ID":66823,"ELEMENT_SET_NO":999,"REV_AT_EPOCH":1611,"BSTAR":0.00065365909,"MEAN_MOTION_DOT":7.715e-5,"MEAN_MOTION_DDOT":0}]
